CCSDS_OMM_VERS = 2.0
CREATION_DATE  = 
ORIGINATOR     = 

OBJECT_NAME    = ISS (ZARYA)
OBJECT_ID      = 1998-067A
CENTER_NAME    = EARTH
REF_FRAME      = TEME
TIME_SYSTEM    = UTC
MEAN_ELEMENT_THEORY = SGP/SGP4

EPOCH          = 2025-11-26T22:21:35.365248
MEAN_MOTION    = 15.49107800
ECCENTRICITY   = .0003812
INCLINATION    = 51.6311
RA_OF_ASC_NODE = 220.7305
ARG_OF_PERICENTER = 172.0243
MEAN_ANOMALY   = 188.0807

EPHEMERIS_TYPE = 0
CLASSIFICATION_TYPE = U
NORAD_CAT_ID   = 25544
ELEMENT_SET_NO = 999
REV_AT_EPOCH   = 54040
BSTAR          = .19922E-3
MEAN_MOTION_DOT = .10582E-3
MEAN_MOTION_DDOT = 0

CCSDS_OMM_VERS = 2.0
CREATION_DATE  = 
ORIGINATOR     = 

OBJECT_NAME    = ISS (NAUKA)
OBJECT_ID      = 2021-066A
CENTER_NAME    = EARTH
REF_FRAME      = TEME
TIME_SYSTEM    = UTC
MEAN_ELEMENT_THEORY = SGP/SGP4

EPOCH          = 2025-11-26T22:21:35.365248
MEAN_MOTION    = 15.49107800
ECCENTRICITY   = .00038121
INCLINATION    = 51.6311
RA_OF_ASC_NODE = 220.7305
ARG_OF_PERICENTER = 172.0243
MEAN_ANOMALY   = 188.0807

EPHEMERIS_TYPE = 0
CLASSIFICATION_TYPE = U
NORAD_CAT_ID   = 49044
ELEMENT_SET_NO = 999
REV_AT_EPOCH   = 23044
BSTAR          = .19921871E-3
MEAN_MOTION_DOT = .10582E-3
MEAN_MOTION_DDOT = 0

CCSDS_OMM_VERS = 2.0
CREATION_DATE  = 
ORIGINATOR     = 

OBJECT_NAME    = FREGAT DEB
OBJECT_ID      = 2011-037PF
CENTER_NAME    = EARTH
REF_FRAME      = TEME
TIME_SYSTEM    = UTC
MEAN_ELEMENT_THEORY = SGP/SGP4

EPOCH          = 2025-11-26T11:00:15.938784
MEAN_MOTION    = 12.34268092
ECCENTRICITY   = .08720353
INCLINATION    = 51.6170
RA_OF_ASC_NODE = 247.5795
ARG_OF_PERICENTER = 188.6324
MEAN_ANOMALY   = 169.8632

EPHEMERIS_TYPE = 0
CLASSIFICATION_TYPE = U
NORAD_CAT_ID   = 49271
ELEMENT_SET_NO = 999
REV_AT_EPOCH   = 19992
BSTAR          = .1909798E-1
MEAN_MOTION_DOT = .868E-4
MEAN_MOTION_DDOT = 0

CCSDS_OMM_VERS = 2.0
CREATION_DATE  = 
ORIGINATOR     = 

OBJECT_NAME    = CSS (WENTIAN)
OBJECT_ID      = 2022-085A
CENTER_NAME    = EARTH
REF_FRAME      = TEME
TIME_SYSTEM    = UTC
MEAN_ELEMENT_THEORY = SGP/SGP4

EPOCH          = 2025-11-26T18:15:06.628032
MEAN_MOTION    = 15.58310216
ECCENTRICITY   = .00107613
INCLINATION    = 41.4669
RA_OF_ASC_NODE = 113.6485
ARG_OF_PERICENTER = 276.2599
MEAN_ANOMALY   = 83.7013

EPHEMERIS_TYPE = 0
CLASSIFICATION_TYPE = U
NORAD_CAT_ID   = 53239
ELEMENT_SET_NO = 999
REV_AT_EPOCH   = 17384
BSTAR          = .3051458E-3
MEAN_MOTION_DOT = .23599E-3
MEAN_MOTION_DDOT = 0

CCSDS_OMM_VERS = 2.0
CREATION_DATE  = 
ORIGINATOR     = 

OBJECT_NAME    = CSS (MENGTIAN)
OBJECT_ID      = 2022-143A
CENTER_NAME    = EARTH
REF_FRAME      = TEME
TIME_SYSTEM    = UTC
MEAN_ELEMENT_THEORY = SGP/SGP4

EPOCH          = 2025-11-26T18:15:06.628032
MEAN_MOTION    = 15.58310216
ECCENTRICITY   = .00107613
INCLINATION    = 41.4669
RA_OF_ASC_NODE = 113.6485
ARG_OF_PERICENTER = 276.2599
MEAN_ANOMALY   = 83.7013

EPHEMERIS_TYPE = 0
CLASSIFICATION_TYPE = U
NORAD_CAT_ID   = 54216
ELEMENT_SET_NO = 999
REV_AT_EPOCH   = 15864
BSTAR          = .3051458E-3
MEAN_MOTION_DOT = .23599E-3
MEAN_MOTION_DDOT = 0

CCSDS_OMM_VERS = 2.0
CREATION_DATE  = 
ORIGINATOR     = 

OBJECT_NAME    = SOYUZ-MS 27
OBJECT_ID      = 2025-072A
CENTER_NAME    = EARTH
REF_FRAME      = TEME
TIME_SYSTEM    = UTC
MEAN_ELEMENT_THEORY = SGP/SGP4

EPOCH          = 2025-11-26T22:21:35.365248
MEAN_MOTION    = 15.49107800
ECCENTRICITY   = .00038121
INCLINATION    = 51.6311
RA_OF_ASC_NODE = 220.7305
ARG_OF_PERICENTER = 172.0243
MEAN_ANOMALY   = 188.0807

EPHEMERIS_TYPE = 0
CLASSIFICATION_TYPE = U
NORAD_CAT_ID   = 63520
ELEMENT_SET_NO = 999
REV_AT_EPOCH   = 2020
BSTAR          = .19921871E-3
MEAN_MOTION_DOT = .10582E-3
MEAN_MOTION_DDOT = 0

CCSDS_OMM_VERS = 2.0
CREATION_DATE  = 
ORIGINATOR     = 

OBJECT_NAME    = SHENZHOU-20 (SZ-20)
OBJECT_ID      = 2025-082A
CENTER_NAME    = EARTH
REF_FRAME      = TEME
TIME_SYSTEM    = UTC
MEAN_ELEMENT_THEORY = SGP/SGP4

EPOCH          = 2025-11-26T18:15:06.628032
MEAN_MOTION    = 15.58310216
ECCENTRICITY   = .00107613
INCLINATION    = 41.4669
RA_OF_ASC_NODE = 113.6485
ARG_OF_PERICENTER = 276.2599
MEAN_ANOMALY   = 83.7013

EPHEMERIS_TYPE = 0
CLASSIFICATION_TYPE = U
NORAD_CAT_ID   = 63632
ELEMENT_SET_NO = 999
REV_AT_EPOCH   = 25530
BSTAR          = .3051458E-3
MEAN_MOTION_DOT = .23599E-3
MEAN_MOTION_DDOT = 0

CCSDS_OMM_VERS = 2.0
CREATION_DATE  = 
ORIGINATOR     = 

OBJECT_NAME    = PROGRESS-MS 31
OBJECT_ID      = 2025-146A
CENTER_NAME    = EARTH
REF_FRAME      = TEME
TIME_SYSTEM    = UTC
MEAN_ELEMENT_THEORY = SGP/SGP4

EPOCH          = 2025-11-26T22:21:35.365248
MEAN_MOTION    = 15.49107800
ECCENTRICITY   = .00038121
INCLINATION    = 51.6311
RA_OF_ASC_NODE = 220.7305
ARG_OF_PERICENTER = 172.0243
MEAN_ANOMALY   = 188.0807

EPHEMERIS_TYPE = 0
CLASSIFICATION_TYPE = U
NORAD_CAT_ID   = 64751
ELEMENT_SET_NO = 999
REV_AT_EPOCH   = 675
BSTAR          = .19921871E-3
MEAN_MOTION_DOT = .10582E-3
MEAN_MOTION_DDOT = 0

CCSDS_OMM_VERS = 2.0
CREATION_DATE  = 
ORIGINATOR     = 

OBJECT_NAME    = TIANZHOU-9
OBJECT_ID      = 2025-149A
CENTER_NAME    = EARTH
REF_FRAME      = TEME
TIME_SYSTEM    = UTC
MEAN_ELEMENT_THEORY = SGP/SGP4

EPOCH          = 2025-11-26T18:15:06.628032
MEAN_MOTION    = 15.58310216
ECCENTRICITY   = .00107613
INCLINATION    = 41.4669
RA_OF_ASC_NODE = 113.6485
ARG_OF_PERICENTER = 276.2599
MEAN_ANOMALY   = 83.7013

EPHEMERIS_TYPE = 0
CLASSIFICATION_TYPE = U
NORAD_CAT_ID   = 64786
ELEMENT_SET_NO = 999
REV_AT_EPOCH   = 25530
BSTAR          = .3051458E-3
MEAN_MOTION_DOT = .23599E-3
MEAN_MOTION_DDOT = 0

CCSDS_OMM_VERS = 2.0
CREATION_DATE  = 
ORIGINATOR     = 

OBJECT_NAME    = CREW DRAGON 11
OBJECT_ID      = 2025-166A
CENTER_NAME    = EARTH
REF_FRAME      = TEME
TIME_SYSTEM    = UTC
MEAN_ELEMENT_THEORY = SGP/SGP4

EPOCH          = 2025-11-26T22:21:35.365248
MEAN_MOTION    = 15.49107800
ECCENTRICITY   = .00038121
INCLINATION    = 51.6311
RA_OF_ASC_NODE = 220.7305
ARG_OF_PERICENTER = 172.0243
MEAN_ANOMALY   = 188.0807

EPHEMERIS_TYPE = 0
CLASSIFICATION_TYPE = U
NORAD_CAT_ID   = 65077
ELEMENT_SET_NO = 999
REV_AT_EPOCH   = 214
BSTAR          = .19921871E-3
MEAN_MOTION_DOT = .10582E-3
MEAN_MOTION_DDOT = 0

CCSDS_OMM_VERS = 2.0
CREATION_DATE  = 
ORIGINATOR     = 

OBJECT_NAME    = DRAGON CRS-33
OBJECT_ID      = 2025-186A
CENTER_NAME    = EARTH
REF_FRAME      = TEME
TIME_SYSTEM    = UTC
MEAN_ELEMENT_THEORY = SGP/SGP4

EPOCH          = 2025-11-26T22:21:35.365248
MEAN_MOTION    = 15.49107800
ECCENTRICITY   = .00038121
INCLINATION    = 51.6311
RA_OF_ASC_NODE = 220.7305
ARG_OF_PERICENTER = 172.0243
MEAN_ANOMALY   = 188.0807

EPHEMERIS_TYPE = 0
CLASSIFICATION_TYPE = U
NORAD_CAT_ID   = 65304
ELEMENT_SET_NO = 999
REV_AT_EPOCH   = 11
BSTAR          = .19921871E-3
MEAN_MOTION_DOT = .10582E-3
MEAN_MOTION_DDOT = 0

