ISS (ZARYA)             
1 25544U 98067A   25330.93165932  .00010582  00000+0  19922-3 0  9992
2 25544  51.6311 220.7305 0003812 172.0243 188.0807 15.49107800540401
ISS (NAUKA)             
1 49044U 21066A   25330.93165932  .00010582  00000+0  19922-3 0  9998
2 49044  51.6311 220.7305 0003812 172.0243 188.0807 15.49107800230442
FREGAT DEB              
1 49271U 11037PF  25330.45851781  .00008680  00000+0  19098-1 0  9996
2 49271  51.6170 247.5795 0872035 188.6324 169.8632 12.34268092199923
CSS (WENTIAN)           
1 53239U 22085A   25330.76049338  .00023599  00000+0  30515-3 0  9996
2 53239  41.4669 113.6485 0010761 276.2599  83.7013 15.58310216173844
CSS (MENGTIAN)          
1 54216U 22143A   25330.76049338  .00023599  00000+0  30515-3 0  9997
2 54216  41.4669 113.6485 0010761 276.2599  83.7013 15.58310216158641
SOYUZ-MS 27             
1 63520U 25072A   25330.93165932  .00010582  00000+0  19922-3 0  9994
2 63520  51.6311 220.7305 0003812 172.0243 188.0807 15.49107800 20208
SHENZHOU-20 (SZ-20)     
1 63632U 25082A   25330.76049338  .00023599  00000+0  30515-3 0  9994
2 63632  41.4669 113.6485 0010761 276.2599  83.7013 15.58310216255304
PROGRESS-MS 31          
1 64751U 25146A   25330.93165932  .00010582  00000+0  19922-3 0  9993
2 64751  51.6311 220.7305 0003812 172.0243 188.0807 15.49107800  6759
TIANZHOU-9              
1 64786U 25149A   25330.76049338  .00023599  00000+0  30515-3 0  9999
2 64786  41.4669 113.6485 0010761 276.2599  83.7013 15.58310216255305
CREW DRAGON 11          
1 65077U 25166A   25330.93165932  .00010582  00000+0  19922-3 0  9997
2 65077  51.6311 220.7305 0003812 172.0243 188.0807 15.49107800  2140
DRAGON CRS-33           
1 65304U 25186A   25330.93165932  .00010582  00000+0  19922-3 0  9992
2 65304  51.6311 220.7305 0003812 172.0243 188.0807 15.49107800   118
